STARLINK-31121          
1 58685U 23211U   26068.45914014 -.00018096  00000+0 -64837-3 0  9997
2 58685  42.9995  86.2025 0001102 209.0829 150.9962 15.27644877122434
REAL                    
1 64875U 25154G   26068.72233414  .00022901  00000+0  82904-3 0  9994
2 64875  97.4133 137.2581 0001853 118.5876 241.5550 15.28408058 34830
